{"type": "FeatureCollection", "features": [ {"type": "Feature", "properties": {"norad_id": 66569, "name": "STARLINK-35835", "group": "last-30-days", "lat": -27.198248251503415, "lon": 96.13252000496651, "alt_km": 416.83606462616353, "timestamp": "2025-12-11T07:02:22.477643+00:00", "meta": {"OBJECT_NAME": "STARLINK-35835", "OBJECT_ID": "2025-268N", "EPOCH": "2025-12-10T22:00:03.000096", "MEAN_MOTION": 15.50594323, "ECCENTRICITY": 0.00016088, "INCLINATION": 43.0001, "RA_OF_ASC_NODE": 131.8041, "ARG_OF_PERICENTER": 271.945, "MEAN_ANOMALY": 101.203, "EPHEMERIS_TYPE": 0, "CLASSIFICATION_TYPE": "U", "NORAD_CAT_ID": 66569, "ELEMENT_SET_NO": 999, "REV_AT_EPOCH": 437, "BSTAR": -0.00096097421, "MEAN_MOTION_DOT": -0.00056344, "MEAN_MOTION_DDOT": 0}, "tle": {"line1": "1 66569U 25268N   25344.91670139 -.00056344  00000+0 -96097-3 0  9996", "line2": "2 66569  43.0001 131.8041 0001608 271.9450 101.2030 15.50594323  4371"}}, "geometry": {"type": "Point", "coordinates": [96.13252000496651, -27.198248251503415]}}, {"type": "Feature", "properties": {"norad_id": 66570, "name": "STARLINK-35834", "group": "last-30-days", "lat": -26.09345456786081, "lon": 97.88958150646863, "alt_km": 416.7188137323001, "timestamp": "2025-12-11T07:02:22.477653+00:00", "meta": {"OBJECT_NAME": "STARLINK-35834", "OBJECT_ID": "2025-268P", "EPOCH": "2025-12-10T22:00:03.000096", "MEAN_MOTION": 15.50624088, "ECCENTRICITY": 0.00017455, "INCLINATION": 43.0003, "RA_OF_ASC_NODE": 131.7994, "ARG_OF_PERICENTER": 273.8364, "MEAN_ANOMALY": 101.2225, "EPHEMERIS_TYPE": 0, "CLASSIFICATION_TYPE": "U", "NORAD_CAT_ID": 66570, "ELEMENT_SET_NO": 999, "REV_AT_EPOCH": 437, "BSTAR": -0.0018622398, "MEAN_MOTION_DOT": -0.0010827, "MEAN_MOTION_DDOT": 0}, "tle": {"line1": "1 66570U 25268P   25344.91670139 -.00108270  00000+0 -18622-2 0  9991", "line2": "2 66570  43.0003 131.7994 0001745 273.8364 101.2225 15.50624088  4376"}}, "geometry": {"type": "Point", "coordinates": [97.88958150646863, -26.09345456786081]}}, {"type": "Feature", "properties": {"norad_id": 66571, "name": "STARLINK-35836", "group": "last-30-days", "lat": -24.976218406504575, "lon": 99.59963569892162, "alt_km": 416.74378257958233, "timestamp": "2025-12-11T07:02:22.477679+00:00", "meta": {"OBJECT_NAME": "STARLINK-35836", "OBJECT_ID": "2025-268Q", "EPOCH": "2025-12-10T22:00:03.000096", "MEAN_MOTION": 15.50599634, "ECCENTRICITY": 0.00015908, "INCLINATION": 43.0001, "RA_OF_ASC_NODE": 131.7943, "ARG_OF_PERICENTER": 271.3882, "MEAN_ANOMALY": 105.5914, "EPHEMERIS_TYPE": 0, "CLASSIFICATION_TYPE": "U", "NORAD_CAT_ID": 66571, "ELEMENT_SET_NO": 999, "REV_AT_EPOCH": 437, "BSTAR": -0.0010871218, "MEAN_MOTION_DOT": -0.00063649, "MEAN_MOTION_DDOT": 0}, "tle": {"line1": "1 66571U 25268Q   25344.91670139 -.00063649  00000+0 -10871-2 0  9990", "line2": "2 66571  43.0001 131.7943 0001590 271.3882 105.5914 15.50599634  4375"}}, "geometry": {"type": "Point", "coordinates": [99.59963569892162, -24.976218406504575]}}, {"type": "Feature", "properties": {"norad_id": 66572, "name": "STARLINK-35870", "group": "last-30-days", "lat": -23.83723135950313, "lon": 101.28365567234094, "alt_km": 416.6961963216736, "timestamp": "2025-12-11T07:02:22.477690+00:00", "meta": {"OBJECT_NAME": "STARLINK-35870", "OBJECT_ID": "2025-268R", "EPOCH": "2025-12-10T22:00:03.000096", "MEAN_MOTION": 15.50593833, "ECCENTRICITY": 0.00015083, "INCLINATION": 43.0001, "RA_OF_ASC_NODE": 131.7905, "ARG_OF_PERICENTER": 273.1274, "MEAN_ANOMALY": 105.7714, "EPHEMERIS_TYPE": 0, "CLASSIFICATION_TYPE": "U", "NORAD_CAT_ID": 66572, "ELEMENT_SET_NO": 999, "REV_AT_EPOCH": 437, "BSTAR": -0.00095365869, "MEAN_MOTION_DOT": -0.0005592, "MEAN_MOTION_DDOT": 0}, "tle": {"line1": "1 66572U 25268R   25344.91670139 -.00055920  00000+0 -95366-3 0  9997", "line2": "2 66572  43.0001 131.7905 0001508 273.1274 105.7714 15.50593833  4373"}}, "geometry": {"type": "Point", "coordinates": [101.28365567234094, -23.83723135950313]}}, {"type": "Feature", "properties": {"norad_id": 66573, "name": "STARLINK-35650", "group": "last-30-days", "lat": -22.673840934142394, "lon": 102.94539727441061, "alt_km": 416.25510806220063, "timestamp": "2025-12-11T07:02:22.477701+00:00", "meta": {"OBJECT_NAME": "STARLINK-35650", "OBJECT_ID": "2025-268S", "EPOCH": "2025-12-10T22:00:03.000096", "MEAN_MOTION": 15.50544644, "ECCENTRICITY": 0.00021661, "INCLINATION": 43.0002, "RA_OF_ASC_NODE": 131.7849, "ARG_OF_PERICENTER": 279.3952, "MEAN_ANOMALY": 101.4647, "EPHEMERIS_TYPE": 0, "CLASSIFICATION_TYPE": "U", "NORAD_CAT_ID": 66573, "ELEMENT_SET_NO": 999, "REV_AT_EPOCH": 437, "BSTAR": -6.7050434e-05, "MEAN_MOTION_DOT": -4.269e-05, "MEAN_MOTION_DDOT": 0}, "tle": {"line1": "1 66573U 25268S   25344.91670139 -.00004269  00000+0 -67050-4 0  9998", "line2": "2 66573  43.0002 131.7849 0002166 279.3952 101.4647 15.50544644  4378"}}, "geometry": {"type": "Point", "coordinates": [102.94539727441061, -22.673840934142394]}}, {"type": "Feature", "properties": {"norad_id": 66574, "name": "STARLINK-35812", "group": "last-30-days", "lat": -21.500676987973772, "lon": 104.56885059951415, "alt_km": 416.38371753641695, "timestamp": "2025-12-11T07:02:22.477710+00:00", "meta": {"OBJECT_NAME": "STARLINK-35812", "OBJECT_ID": "2025-268T", "EPOCH": "2025-12-10T22:00:03.000096", "MEAN_MOTION": 15.50594842, "ECCENTRICITY": 0.00018694, "INCLINATION": 43.0001, "RA_OF_ASC_NODE": 131.7795, "ARG_OF_PERICENTER": 274.5448, "MEAN_ANOMALY": 108.1875, "EPHEMERIS_TYPE": 0, "CLASSIFICATION_TYPE": "U", "NORAD_CAT_ID": 66574, "ELEMENT_SET_NO": 999, "REV_AT_EPOCH": 437, "BSTAR": -0.00096409365, "MEAN_MOTION_DOT": -0.00056527, "MEAN_MOTION_DDOT": 0}, "tle": {"line1": "1 66574U 25268T   25344.91670139 -.00056527  00000+0 -96409-3 0  9992", "line2": "2 66574  43.0001 131.7795 0001869 274.5448 108.1875 15.50594842  4376"}}, "geometry": {"type": "Point", "coordinates": [104.56885059951415, -21.500676987973772]}}, {"type": "Feature", "properties": {"norad_id": 66575, "name": "STARLINK-35810", "group": "last-30-days", "lat": -20.307167913756786, "lon": 106.17334549397592, "alt_km": 416.3453742519223, "timestamp": "2025-12-11T07:02:22.477721+00:00", "meta": {"OBJECT_NAME": "STARLINK-35810", "OBJECT_ID": "2025-268U", "EPOCH": "2025-12-10T22:00:03.000096", "MEAN_MOTION": 15.50607712, "ECCENTRICITY": 0.00018055, "INCLINATION": 43.0001, "RA_OF_ASC_NODE": 131.7748, "ARG_OF_PERICENTER": 275.4657, "MEAN_ANOMALY": 109.1832, "EPHEMERIS_TYPE": 0, "CLASSIFICATION_TYPE": "U", "NORAD_CAT_ID": 66575, "ELEMENT_SET_NO": 999, "REV_AT_EPOCH": 437, "BSTAR": -0.0013954261, "MEAN_MOTION_DOT": -0.00081444, "MEAN_MOTION_DDOT": 0}, "tle": {"line1": "1 66575U 25268U   25344.91670139 -.00081444  00000+0 -13954-2 0  9992", "line2": "2 66575  43.0001 131.7748 0001805 275.4657 109.1832 15.50607712  4372"}}, "geometry": {"type": "Point", "coordinates": [106.17334549397592, -20.307167913756786]}}, {"type": "Feature", "properties": {"norad_id": 66576, "name": "STARLINK-35814", "group": "last-30-days", "lat": -19.102959390549216, "lon": 107.74820061346735, "alt_km": 416.3364833391297, "timestamp": "2025-12-11T07:02:22.477731+00:00", "meta": {"OBJECT_NAME": "STARLINK-35814", "OBJECT_ID": "2025-268V", "EPOCH": "2025-12-10T22:00:03.000096", "MEAN_MOTION": 15.50593442, "ECCENTRICITY": 0.00018559, "INCLINATION": 43.0001, "RA_OF_ASC_NODE": 131.7701, "ARG_OF_PERICENTER": 270.2123, "MEAN_ANOMALY": 116.3561, "EPHEMERIS_TYPE": 0, "CLASSIFICATION_TYPE": "U", "NORAD_CAT_ID": 66576, "ELEMENT_SET_NO": 999, "REV_AT_EPOCH": 437, "BSTAR": -0.00097223995, "MEAN_MOTION_DOT": -0.00056996, "MEAN_MOTION_DDOT": 0}, "tle": {"line1": "1 66576U 25268V   25344.91670139 -.00056996  00000+0 -97224-3 0  9990", "line2": "2 66576  43.0001 131.7701 0001855 270.2123 116.3561 15.50593442  4371"}}, "geometry": {"type": "Point", "coordinates": [107.74820061346735, -19.102959390549216]}}, {"type": "Feature", "properties": {"norad_id": 66577, "name": "STARLINK-35815", "group": "last-30-days", "lat": -17.87368588867078, "lon": 109.31530356934262, "alt_km": 416.12776475413557, "timestamp": "2025-12-11T07:02:22.477741+00:00", "meta": {"OBJECT_NAME": "STARLINK-35815", "OBJECT_ID": "2025-268W", "EPOCH": "2025-12-10T22:00:03.000096", "MEAN_MOTION": 15.50592776, "ECCENTRICITY": 0.00017812, "INCLINATION": 43.0002, "RA_OF_ASC_NODE": 131.7657, "ARG_OF_PERICENTER": 273.6263, "MEAN_ANOMALY": 114.8541, "EPHEMERIS_TYPE": 0, "CLASSIFICATION_TYPE": "U", "NORAD_CAT_ID": 66577, "ELEMENT_SET_NO": 999, "REV_AT_EPOCH": 437, "BSTAR": -0.00020048162, "MEAN_MOTION_DOT": -0.00012091, "MEAN_MOTION_DDOT": 0}, "tle": {"line1": "1 66577U 25268W   25344.91670139 -.00012091  00000+0 -20048-3 0  9999", "line2": "2 66577  43.0002 131.7657 0001781 273.6263 114.8541 15.50592776  4373"}}, "geometry": {"type": "Point", "coordinates": [109.31530356934262, -17.87368588867078]}}, {"type": "Feature", "properties": {"norad_id": 66578, "name": "STARLINK-35743", "group": "last-30-days", "lat": -16.65321005722698, "lon": 110.8337639675502, "alt_km": 416.1965689345652, "timestamp": "2025-12-11T07:02:22.477751+00:00", "meta": {"OBJECT_NAME": "STARLINK-35743", "OBJECT_ID": "2025-268X", "EPOCH": "2025-12-10T22:00:03.000096", "MEAN_MOTION": 15.50600712, "ECCENTRICITY": 0.00016375, "INCLINATION": 43.0001, "RA_OF_ASC_NODE": 131.7606, "ARG_OF_PERICENTER": 273.9792, "MEAN_ANOMALY": 116.4209, "EPHEMERIS_TYPE": 0, "CLASSIFICATION_TYPE": "U", "NORAD_CAT_ID": 66578, "ELEMENT_SET_NO": 999, "REV_AT_EPOCH": 437, "BSTAR": -0.0011792329, "MEAN_MOTION_DOT": -0.00068969, "MEAN_MOTION_DDOT": 0}, "tle": {"line1": "1 66578U 25268X   25344.91670139 -.00068969  00000+0 -11792-2 0  9990", "line2": "2 66578  43.0001 131.7606 0001637 273.9792 116.4209 15.50600712  4376"}}, "geometry": {"type": "Point", "coordinates": [110.8337639675502, -16.65321005722698]}}]}